{"type": "FeatureCollection", "features": [ {"type": "Feature", "properties": {"norad_id": 34571, "name": "COSMOS 2251 DEB", "group": "cosmos-2251-debris", "lat": 24.788087609129633, "lon": -12.66495717621094, "alt_km": 701.1837604597758, "timestamp": "2025-12-16T17:51:11.326961+00:00", "meta": {"OBJECT_NAME": "COSMOS 2251 DEB", "OBJECT_ID": "1993-036VH", "EPOCH": "2025-12-14T23:42:40.133664", "MEAN_MOTION": 14.48849541, "ECCENTRICITY": 0.00655811, "INCLINATION": 74.0396, "RA_OF_ASC_NODE": 178.2191, "ARG_OF_PERICENTER": 212.5153, "MEAN_ANOMALY": 147.196, "EPHEMERIS_TYPE": 0, "CLASSIFICATION_TYPE": "U", "NORAD_CAT_ID": 34571, "ELEMENT_SET_NO": 999, "REV_AT_EPOCH": 87326, "BSTAR": 0.0014357818, "MEAN_MOTION_DOT": 5.554e-05, "MEAN_MOTION_DDOT": 0}, "tle": {"line1": "1 34571U 93036VH  25348.98796451  .00005554  00000+0  14358-2 0  9993", "line2": "2 34571  74.0396 178.2191 0065581 212.5153 147.1960 14.48849541873266"}}, "geometry": {"type": "Point", "coordinates": [-12.66495717621094, 24.788087609129633]}}, {"type": "Feature", "properties": {"norad_id": 34572, "name": "COSMOS 2251 DEB", "group": "cosmos-2251-debris", "lat": 32.689718004320575, "lon": 118.57753693623177, "alt_km": 760.033180840911, "timestamp": "2025-12-16T17:51:11.326971+00:00", "meta": {"OBJECT_NAME": "COSMOS 2251 DEB", "OBJECT_ID": "1993-036VJ", "EPOCH": "2025-12-15T19:13:01.737984", "MEAN_MOTION": 14.50081259, "ECCENTRICITY": 0.00624727, "INCLINATION": 74.0096, "RA_OF_ASC_NODE": 109.7472, "ARG_OF_PERICENTER": 182.976, "MEAN_ANOMALY": 330.068, "EPHEMERIS_TYPE": 0, "CLASSIFICATION_TYPE": "U", "NORAD_CAT_ID": 34572, "ELEMENT_SET_NO": 999, "REV_AT_EPOCH": 87422, "BSTAR": 0.0017360326, "MEAN_MOTION_DOT": 6.884e-05, "MEAN_MOTION_DDOT": 0}, "tle": {"line1": "1 34572U 93036VJ  25349.80071456  .00006884  00000+0  17360-2 0  9990", "line2": "2 34572  74.0096 109.7472 0062472 182.9760 330.0680 14.50081259874221"}}, "geometry": {"type": "Point", "coordinates": [118.57753693623177, 32.689718004320575]}}, {"type": "Feature", "properties": {"norad_id": 34574, "name": "COSMOS 2251 DEB", "group": "cosmos-2251-debris", "lat": -36.775055912244525, "lon": -132.29594853075787, "alt_km": 710.1324127326543, "timestamp": "2025-12-16T17:51:11.326981+00:00", "meta": {"OBJECT_NAME": "COSMOS 2251 DEB", "OBJECT_ID": "1993-036VL", "EPOCH": "2025-12-15T20:10:37.078752", "MEAN_MOTION": 14.70641588, "ECCENTRICITY": 0.00669823, "INCLINATION": 74.0697, "RA_OF_ASC_NODE": 37.1265, "ARG_OF_PERICENTER": 57.1416, "MEAN_ANOMALY": 61.3423, "EPHEMERIS_TYPE": 0, "CLASSIFICATION_TYPE": "U", "NORAD_CAT_ID": 34574, "ELEMENT_SET_NO": 999, "REV_AT_EPOCH": 88824, "BSTAR": 0.00057249553, "MEAN_MOTION_DOT": 3.576e-05, "MEAN_MOTION_DDOT": 0}, "tle": {"line1": "1 34574U 93036VL  25349.84070693  .00003576  00000+0  57250-3 0  9996", "line2": "2 34574  74.0697  37.1265 0066982  57.1416  61.3423 14.70641588888240"}}, "geometry": {"type": "Point", "coordinates": [-132.29594853075787, -36.775055912244525]}}, {"type": "Feature", "properties": {"norad_id": 34576, "name": "COSMOS 2251 DEB", "group": "cosmos-2251-debris", "lat": -29.640039790325787, "lon": 121.23589879850111, "alt_km": 710.8016512251943, "timestamp": "2025-12-16T17:51:11.326991+00:00", "meta": {"OBJECT_NAME": "COSMOS 2251 DEB", "OBJECT_ID": "1993-036VN", "EPOCH": "2025-12-15T10:54:37.583424", "MEAN_MOTION": 14.55446327, "ECCENTRICITY": 0.00081533, "INCLINATION": 74.0336, "RA_OF_ASC_NODE": 133.0531, "ARG_OF_PERICENTER": 269.3627, "MEAN_ANOMALY": 147.1327, "EPHEMERIS_TYPE": 0, "CLASSIFICATION_TYPE": "U", "NORAD_CAT_ID": 34576, "ELEMENT_SET_NO": 999, "REV_AT_EPOCH": 88506, "BSTAR": 0.00062027985, "MEAN_MOTION_DOT": 2.67e-05, "MEAN_MOTION_DDOT": 0}, "tle": {"line1": "1 34576U 93036VN  25349.45460166  .00002670  00000+0  62028-3 0  9996", "line2": "2 34576  74.0336 133.0531 0008153 269.3627 147.1327 14.55446327885061"}}, "geometry": {"type": "Point", "coordinates": [121.23589879850111, -29.640039790325787]}}, {"type": "Feature", "properties": {"norad_id": 34579, "name": "COSMOS 2251 DEB", "group": "cosmos-2251-debris", "lat": 39.61294500340029, "lon": -129.87202425615445, "alt_km": 746.5003640589084, "timestamp": "2025-12-16T17:51:11.327001+00:00", "meta": {"OBJECT_NAME": "COSMOS 2251 DEB", "OBJECT_ID": "1993-036VR", "EPOCH": "2025-12-15T21:48:26.725824", "MEAN_MOTION": 14.45318253, "ECCENTRICITY": 0.002755, "INCLINATION": 74.0529, "RA_OF_ASC_NODE": 217.9933, "ARG_OF_PERICENTER": 286.1742, "MEAN_ANOMALY": 91.0612, "EPHEMERIS_TYPE": 0, "CLASSIFICATION_TYPE": "U", "NORAD_CAT_ID": 34579, "ELEMENT_SET_NO": 999, "REV_AT_EPOCH": 88220, "BSTAR": 0.00031426604, "MEAN_MOTION_DOT": 1.082e-05, "MEAN_MOTION_DDOT": 0}, "tle": {"line1": "1 34579U 93036VR  25349.90864266  .00001082  00000+0  31427-3 0  9993", "line2": "2 34579  74.0529 217.9933 0027550 286.1742  91.0612 14.45318253882205"}}, "geometry": {"type": "Point", "coordinates": [-129.87202425615445, 39.61294500340029]}}, {"type": "Feature", "properties": {"norad_id": 34582, "name": "COSMOS 2251 DEB", "group": "cosmos-2251-debris", "lat": -46.99363084428362, "lon": -112.96111736948069, "alt_km": 738.5590946994616, "timestamp": "2025-12-16T17:51:11.327012+00:00", "meta": {"OBJECT_NAME": "COSMOS 2251 DEB", "OBJECT_ID": "1993-036VU", "EPOCH": "2025-12-15T18:47:30.840576", "MEAN_MOTION": 14.43342403, "ECCENTRICITY": 0.00480319, "INCLINATION": 74.0201, "RA_OF_ASC_NODE": 266.7169, "ARG_OF_PERICENTER": 16.1823, "MEAN_ANOMALY": 344.0854, "EPHEMERIS_TYPE": 0, "CLASSIFICATION_TYPE": "U", "NORAD_CAT_ID": 34582, "ELEMENT_SET_NO": 999, "REV_AT_EPOCH": 87991, "BSTAR": 0.00059140872, "MEAN_MOTION_DOT": 1.996e-05, "MEAN_MOTION_DDOT": 0}, "tle": {"line1": "1 34582U 93036VU  25349.78299584  .00001996  00000+0  59141-3 0  9995", "line2": "2 34582  74.0201 266.7169 0048031  16.1823 344.0854 14.43342403879912"}}, "geometry": {"type": "Point", "coordinates": [-112.96111736948069, -46.99363084428362]}}, {"type": "Feature", "properties": {"norad_id": 34588, "name": "COSMOS 2251 DEB", "group": "cosmos-2251-debris", "lat": -12.41810640626786, "lon": -102.77587934775242, "alt_km": 744.5191475681868, "timestamp": "2025-12-16T17:51:11.327022+00:00", "meta": {"OBJECT_NAME": "COSMOS 2251 DEB", "OBJECT_ID": "1993-036WA", "EPOCH": "2025-12-15T22:17:03.765984", "MEAN_MOTION": 14.4203261, "ECCENTRICITY": 0.00192366, "INCLINATION": 74.0438, "RA_OF_ASC_NODE": 262.3463, "ARG_OF_PERICENTER": 314.6775, "MEAN_ANOMALY": 121.2791, "EPHEMERIS_TYPE": 0, "CLASSIFICATION_TYPE": "U", "NORAD_CAT_ID": 34588, "ELEMENT_SET_NO": 999, "REV_AT_EPOCH": 87996, "BSTAR": 0.00035738615, "MEAN_MOTION_DOT": 1.149e-05, "MEAN_MOTION_DDOT": 0}, "tle": {"line1": "1 34588U 93036WA  25349.92851581  .00001149  00000+0  35739-3 0  9995", "line2": "2 34588  74.0438 262.3463 0019236 314.6775 121.2791 14.42032610879961"}}, "geometry": {"type": "Point", "coordinates": [-102.77587934775242, -12.41810640626786]}}, {"type": "Feature", "properties": {"norad_id": 34589, "name": "COSMOS 2251 DEB", "group": "cosmos-2251-debris", "lat": 66.71288757724247, "lon": -172.84972035905028, "alt_km": 1010.570845272915, "timestamp": "2025-12-16T17:51:11.327032+00:00", "meta": {"OBJECT_NAME": "COSMOS 2251 DEB", "OBJECT_ID": "1993-036WB", "EPOCH": "2025-12-15T21:07:13.255392", "MEAN_MOTION": 13.86055381, "ECCENTRICITY": 0.02519969, "INCLINATION": 73.9257, "RA_OF_ASC_NODE": 50.6812, "ARG_OF_PERICENTER": 353.4006, "MEAN_ANOMALY": 122.126, "EPHEMERIS_TYPE": 0, "CLASSIFICATION_TYPE": "U", "NORAD_CAT_ID": 34589, "ELEMENT_SET_NO": 999, "REV_AT_EPOCH": 84755, "BSTAR": 0.00028237935, "MEAN_MOTION_DOT": 3.93e-06, "MEAN_MOTION_DDOT": 0}, "tle": {"line1": "1 34589U 93036WB  25349.88001453  .00000393  00000+0  28238-3 0  9992", "line2": "2 34589  73.9257  50.6812 0251996 353.4006 122.1260 13.86055381847552"}}, "geometry": {"type": "Point", "coordinates": [-172.84972035905028, 66.71288757724247]}}, {"type": "Feature", "properties": {"norad_id": 34590, "name": "COSMOS 2251 DEB", "group": "cosmos-2251-debris", "lat": -1.4851014685574035, "lon": -45.448608956377036, "alt_km": 708.0982715474902, "timestamp": "2025-12-16T17:51:11.327042+00:00", "meta": {"OBJECT_NAME": "COSMOS 2251 DEB", "OBJECT_ID": "1993-036WC", "EPOCH": "2025-12-15T22:11:51.043776", "MEAN_MOTION": 14.54829452, "ECCENTRICITY": 0.00679637, "INCLINATION": 74.0439, "RA_OF_ASC_NODE": 316.525, "ARG_OF_PERICENTER": 85.1842, "MEAN_ANOMALY": 306.5787, "EPHEMERIS_TYPE": 0, "CLASSIFICATION_TYPE": "U", "NORAD_CAT_ID": 34590, "ELEMENT_SET_NO": 999, "REV_AT_EPOCH": 89167, "BSTAR": 0.00012786475, "MEAN_MOTION_DOT": 5.36e-06, "MEAN_MOTION_DDOT": 0}, "tle": {"line1": "1 34590U 93036WC  25349.92489634  .00000536  00000+0  12786-3 0  9990", "line2": "2 34590  74.0439 316.5250 0067963  85.1842 306.5787 14.54829452891672"}}, "geometry": {"type": "Point", "coordinates": [-45.448608956377036, -1.4851014685574035]}}, {"type": "Feature", "properties": {"norad_id": 34609, "name": "COSMOS 2251 DEB", "group": "cosmos-2251-debris", "lat": 13.896162766610177, "lon": 103.54669226688031, "alt_km": 760.8261836319989, "timestamp": "2025-12-16T17:51:11.327053+00:00", "meta": {"OBJECT_NAME": "COSMOS 2251 DEB", "OBJECT_ID": "1993-036WE", "EPOCH": "2025-12-15T18:52:52.677120", "MEAN_MOTION": 14.21805593, "ECCENTRICITY": 0.01453201, "INCLINATION": 73.7332, "RA_OF_ASC_NODE": 101.1529, "ARG_OF_PERICENTER": 320.1561, "MEAN_ANOMALY": 195.7348, "EPHEMERIS_TYPE": 0, "CLASSIFICATION_TYPE": "U", "NORAD_CAT_ID": 34609, "ELEMENT_SET_NO": 999, "REV_AT_EPOCH": 86675, "BSTAR": 0.00056746146, "MEAN_MOTION_DOT": 1.362e-05, "MEAN_MOTION_DDOT": 0}, "tle": {"line1": "1 34609U 93036WE  25349.78672080  .00001362  00000+0  56746-3 0  9996", "line2": "2 34609  73.7332 101.1529 0145320 320.1561 195.7348 14.21805593866758"}}, "geometry": {"type": "Point", "coordinates": [103.54669226688031, 13.896162766610177]}}]}